{
    "links": {
        "self": "http://www.neowsapp.com/rest/v1/neo/3545631?api_key=iIulBulltgU6a56xZRHN4H3l9WmuAYTsLGpBGhQ2"
    },
    "id": "3545631",
    "neo_reference_id": "3545631",
    "name": "(2010 RF31)",
    "designation": "2010 RF31",
    "nasa_jpl_url": "http://ssd.jpl.nasa.gov/sbdb.cgi?sstr=3545631",
    "absolute_magnitude_h": 25.2,
    "estimated_diameter": {
        "kilometers": {
            "estimated_diameter_min": 0.0242412481,
            "estimated_diameter_max": 0.0542050786
        },
        "meters": {
            "estimated_diameter_min": 24.2412481101,
            "estimated_diameter_max": 54.2050786336
        },
        "miles": {
            "estimated_diameter_min": 0.0150628086,
            "estimated_diameter_max": 0.0336814639
        },
        "feet": {
            "estimated_diameter_min": 79.5316564495,
            "estimated_diameter_max": 177.8381901842
        }
    },
    "is_potentially_hazardous_asteroid": false,
    "close_approach_data": [
        {
            "close_approach_date": "2002-08-25",
            "close_approach_date_full": "2002-Aug-25 00:25",
            "epoch_date_close_approach": 1030235100000,
            "relative_velocity": {
                "kilometers_per_second": "13.3910046803",
                "kilometers_per_hour": "48207.6168491722",
                "miles_per_hour": "29954.3383694203"
            },
            "miss_distance": {
                "astronomical": "0.2844326008",
                "lunar": "110.6442817112",
                "kilometers": "42550511.238240296",
                "miles": "26439661.6600402448"
            },
            "orbiting_body": "Earth"
        },
        {
            "close_approach_date": "2010-09-14",
            "close_approach_date_full": "2010-Sep-14 13:05",
            "epoch_date_close_approach": 1284469500000,
            "relative_velocity": {
                "kilometers_per_second": "5.9534509098",
                "kilometers_per_hour": "21432.4232752446",
                "miles_per_hour": "13317.2743401097"
            },
            "miss_distance": {
                "astronomical": "0.0493028351",
                "lunar": "19.1788028539",
                "kilometers": "7375599.115921237",
                "miles": "4582984.7748055906"
            },
            "orbiting_body": "Earth"
        }
    ],
    "orbital_data": {
        "orbit_id": "8",
        "orbit_determination_date": "2017-04-06 08:56:49",
        "first_observation_date": "2010-09-05",
        "last_observation_date": "2010-09-11",
        "data_arc_in_days": 6,
        "observations_used": 28,
        "orbit_uncertainty": "7",
        "minimum_orbit_intersection": ".0487421",
        "jupiter_tisserand_invariant": "4.773",
        "epoch_osculation": "2459000.5",
        "eccentricity": ".2777278060905661",
        "semi_major_axis": "1.372429946399575",
        "inclination": "5.946545763325251",
        "ascending_node_longitude": "332.3394071041675",
        "orbital_period": "587.2644417344642",
        "perihelion_distance": ".9912679883730274",
        "perihelion_argument": "57.51604004632979",
        "aphelion_distance": "1.753591904426122",
        "perihelion_time": "2459009.450314541577",
        "mean_anomaly": "354.5133520676796",
        "mean_motion": ".6130117446524654",
        "equinox": "J2000",
        "orbit_class": {
            "orbit_class_type": "APO",
            "orbit_class_description": "Near-Earth asteroid orbits which cross the Earth’s orbit similar to that of 1862 Apollo",
            "orbit_class_range": "a (semi-major axis) > 1.0 AU; q (perihelion) < 1.017 AU"
        }
    },
    "is_sentry_object": false
}